{"type": "FeatureCollection", "features": [ {"type": "Feature", "properties": {"norad_id": 17070, "name": "POLAR BEAR", "group": "nnss", "lat": -47.964778080381656, "lon": -176.56044524541304, "alt_km": 1017.5389331959886, "timestamp": "2025-12-10T11:33:53.654052+00:00", "meta": {"OBJECT_NAME": "POLAR BEAR", "OBJECT_ID": "1986-088A", "EPOCH": "2025-12-10T03:37:56.894016", "MEAN_MOTION": 13.75249996, "ECCENTRICITY": 0.0040816, "INCLINATION": 89.6176, "RA_OF_ASC_NODE": 183.8773, "ARG_OF_PERICENTER": 126.7496, "MEAN_ANOMALY": 350.0554, "EPHEMERIS_TYPE": 0, "CLASSIFICATION_TYPE": "U", "NORAD_CAT_ID": 17070, "ELEMENT_SET_NO": 999, "REV_AT_EPOCH": 95943, "BSTAR": 0.00013919, "MEAN_MOTION_DOT": 1.46e-06, "MEAN_MOTION_DDOT": 0}, "tle": {"line1": "1 17070U 86088A   25344.15135294  .00000146  00000+0  13919-3 0  9999", "line2": "2 17070  89.6176 183.8773 0040816 126.7496 350.0554 13.75249996959432"}}, "geometry": {"type": "Point", "coordinates": [-176.56044524541304, -47.964778080381656]}}, {"type": "Feature", "properties": {"norad_id": 18361, "name": "OSCAR 27", "group": "nnss", "lat": 84.8955826337588, "lon": -96.61665230656466, "alt_km": 1137.7542271297007, "timestamp": "2025-12-10T11:33:53.654063+00:00", "meta": {"OBJECT_NAME": "OSCAR 27", "OBJECT_ID": "1987-080A", "EPOCH": "2025-12-10T03:56:34.452096", "MEAN_MOTION": 13.44905917, "ECCENTRICITY": 0.0102723, "INCLINATION": 90.3742, "RA_OF_ASC_NODE": 79.176, "ARG_OF_PERICENTER": 231.2561, "MEAN_ANOMALY": 127.9373, "EPHEMERIS_TYPE": 0, "CLASSIFICATION_TYPE": "U", "NORAD_CAT_ID": 18361, "ELEMENT_SET_NO": 999, "REV_AT_EPOCH": 87522, "BSTAR": 0.00027095, "MEAN_MOTION_DOT": 1.72e-06, "MEAN_MOTION_DDOT": 0}, "tle": {"line1": "1 18361U 87080A   25344.16428764  .00000172  00000+0  27095-3 0  9993", "line2": "2 18361  90.3742  79.1760 0102723 231.2561 127.9373 13.44905917875220"}}, "geometry": {"type": "Point", "coordinates": [-96.61665230656466, 84.8955826337588]}}, {"type": "Feature", "properties": {"norad_id": 18362, "name": "OSCAR 29", "group": "nnss", "lat": 68.85658764018845, "lon": -99.38205286479796, "alt_km": 1147.5153884183046, "timestamp": "2025-12-10T11:33:53.654073+00:00", "meta": {"OBJECT_NAME": "OSCAR 29", "OBJECT_ID": "1987-080B", "EPOCH": "2025-12-10T04:10:57.391968", "MEAN_MOTION": 13.44447751, "ECCENTRICITY": 0.0103808, "INCLINATION": 90.3754, "RA_OF_ASC_NODE": 79.6351, "ARG_OF_PERICENTER": 254.6181, "MEAN_ANOMALY": 169.3252, "EPHEMERIS_TYPE": 0, "CLASSIFICATION_TYPE": "U", "NORAD_CAT_ID": 18362, "ELEMENT_SET_NO": 999, "REV_AT_EPOCH": 87475, "BSTAR": 0.00024897, "MEAN_MOTION_DOT": 1.57e-06, "MEAN_MOTION_DDOT": 0}, "tle": {"line1": "1 18362U 87080B   25344.17427537  .00000157  00000+0  24897-3 0  9992", "line2": "2 18362  90.3754  79.6351 0103808 254.6181 169.3252 13.44447751874757"}}, "geometry": {"type": "Point", "coordinates": [-99.38205286479796, 68.85658764018845]}}, {"type": "Feature", "properties": {"norad_id": 19070, "name": "OSCAR 23", "group": "nnss", "lat": 21.74521215510656, "lon": 16.19446069891244, "alt_km": 1292.0314066406172, "timestamp": "2025-12-10T11:33:53.654082+00:00", "meta": {"OBJECT_NAME": "OSCAR 23", "OBJECT_ID": "1988-033A", "EPOCH": "2025-12-10T02:41:29.887008", "MEAN_MOTION": 13.27786545, "ECCENTRICITY": 0.0189313, "INCLINATION": 90.3214, "RA_OF_ASC_NODE": 16.3112, "ARG_OF_PERICENTER": 187.2307, "MEAN_ANOMALY": 228.9665, "EPHEMERIS_TYPE": 0, "CLASSIFICATION_TYPE": "U", "NORAD_CAT_ID": 19070, "ELEMENT_SET_NO": 999, "REV_AT_EPOCH": 82218, "BSTAR": 0.00019058, "MEAN_MOTION_DOT": 1.03e-06, "MEAN_MOTION_DDOT": 0}, "tle": {"line1": "1 19070U 88033A   25344.11215147  .00000103  00000+0  19058-3 0  9998", "line2": "2 19070  90.3214  16.3112 0189313 187.2307 228.9665 13.27786545822182"}}, "geometry": {"type": "Point", "coordinates": [16.19446069891244, 21.74521215510656]}}, {"type": "Feature", "properties": {"norad_id": 19071, "name": "OSCAR 32", "group": "nnss", "lat": 49.99028670006318, "lon": -163.1616745837117, "alt_km": 1045.2655005051292, "timestamp": "2025-12-10T11:33:53.654092+00:00", "meta": {"OBJECT_NAME": "OSCAR 32", "OBJECT_ID": "1988-033B", "EPOCH": "2025-12-10T04:02:11.577120", "MEAN_MOTION": 13.27953499, "ECCENTRICITY": 0.0188156, "INCLINATION": 90.3219, "RA_OF_ASC_NODE": 16.4448, "ARG_OF_PERICENTER": 173.9306, "MEAN_ANOMALY": 258.7457, "EPHEMERIS_TYPE": 0, "CLASSIFICATION_TYPE": "U", "NORAD_CAT_ID": 19071, "ELEMENT_SET_NO": 999, "REV_AT_EPOCH": 82231, "BSTAR": 0.00017277, "MEAN_MOTION_DOT": 9.5e-07, "MEAN_MOTION_DDOT": 0}, "tle": {"line1": "1 19071U 88033B   25344.16818955  .00000095  00000+0  17277-3 0  9991", "line2": "2 19071  90.3219  16.4448 0188156 173.9306 258.7457 13.27953499822315"}}, "geometry": {"type": "Point", "coordinates": [-163.1616745837117, 49.99028670006318]}}, {"type": "Feature", "properties": {"norad_id": 19223, "name": "NOVA 2", "group": "nnss", "lat": 9.16424483816232, "lon": 78.27732080890866, "alt_km": 1152.5718653604736, "timestamp": "2025-12-10T11:33:53.654102+00:00", "meta": {"OBJECT_NAME": "NOVA 2", "OBJECT_ID": "1988-052A", "EPOCH": "2025-12-10T04:34:13.727424", "MEAN_MOTION": 13.22935588, "ECCENTRICITY": 0.0030805, "INCLINATION": 89.9871, "RA_OF_ASC_NODE": 78.2756, "ARG_OF_PERICENTER": 23.8298, "MEAN_ANOMALY": 38.3563, "EPHEMERIS_TYPE": 0, "CLASSIFICATION_TYPE": "U", "NORAD_CAT_ID": 19223, "ELEMENT_SET_NO": 999, "REV_AT_EPOCH": 80914, "BSTAR": 0.00019458, "MEAN_MOTION_DOT": 9.1e-07, "MEAN_MOTION_DDOT": 0}, "tle": {"line1": "1 19223U 88052A   25344.19043666  .00000091  00000+0  19458-3 0  9992", "line2": "2 19223  89.9871  78.2756 0030805  23.8298  38.3563 13.22935588809140"}}, "geometry": {"type": "Point", "coordinates": [78.27732080890866, 9.16424483816232]}}, {"type": "Feature", "properties": {"norad_id": 19419, "name": "OSCAR 25", "group": "nnss", "lat": -73.68971600352488, "lon": 20.356236714273084, "alt_km": 1048.1913136068815, "timestamp": "2025-12-10T11:33:53.654112+00:00", "meta": {"OBJECT_NAME": "OSCAR 25", "OBJECT_ID": "1988-074A", "EPOCH": "2025-12-10T03:17:45.153888", "MEAN_MOTION": 13.42622609, "ECCENTRICITY": 0.0094347, "INCLINATION": 90.0349, "RA_OF_ASC_NODE": 20.2357, "ARG_OF_PERICENTER": 253.3967, "MEAN_ANOMALY": 168.0048, "EPHEMERIS_TYPE": 0, "CLASSIFICATION_TYPE": "U", "NORAD_CAT_ID": 19419, "ELEMENT_SET_NO": 999, "REV_AT_EPOCH": 82605, "BSTAR": 0.00020994, "MEAN_MOTION_DOT": 1.3e-06, "MEAN_MOTION_DDOT": 0}, "tle": {"line1": "1 19419U 88074A   25344.13732817  .00000130  00000+0  20994-3 0  9991", "line2": "2 19419  90.0349  20.2357 0094347 253.3967 168.0048 13.42622609826055"}}, "geometry": {"type": "Point", "coordinates": [20.356236714273084, -73.68971600352488]}}, {"type": "Feature", "properties": {"norad_id": 19420, "name": "OSCAR 31", "group": "nnss", "lat": 11.094483596419131, "lon": -159.40635279963493, "alt_km": 1085.7100848611117, "timestamp": "2025-12-10T11:33:53.654126+00:00", "meta": {"OBJECT_NAME": "OSCAR 31", "OBJECT_ID": "1988-074B", "EPOCH": "2025-12-10T03:52:58.446048", "MEAN_MOTION": 13.42584001, "ECCENTRICITY": 0.0092626, "INCLINATION": 90.0366, "RA_OF_ASC_NODE": 20.5853, "ARG_OF_PERICENTER": 247.4219, "MEAN_ANOMALY": 176.2622, "EPHEMERIS_TYPE": 0, "CLASSIFICATION_TYPE": "U", "NORAD_CAT_ID": 19420, "ELEMENT_SET_NO": 999, "REV_AT_EPOCH": 82616, "BSTAR": 0.00017402, "MEAN_MOTION_DOT": 1.09e-06, "MEAN_MOTION_DDOT": 0}, "tle": {"line1": "1 19420U 88074B   25344.16178757  .00000109  00000+0  17402-3 0  9999", "line2": "2 19420  90.0366  20.5853 0092626 247.4219 176.2622 13.42584001826166"}}, "geometry": {"type": "Point", "coordinates": [-159.40635279963493, 11.094483596419131]}}]}